{
  "norad_id": 66033,
  "name": "QIANFAN-91",
  "history": [
    {
      "epoch": "2026-03-28T22:09:35.223840Z",
      "apogee_km": 1070.3022003551123,
      "perigee_km": 1066.8097013611596,
      "latitude_deg": -4.202369048862326e-05,
      "longitude_deg": -107.43887267462821,
      "height_km": 1071.4126636716974,
      "semi_major_axis_km": 7446.692950858136,
      "eccentricity": 0.0002345,
      "inclination_deg": 88.997,
      "raan_deg": 51.2947,
      "arg_perigee_deg": 86.9598,
      "mean_anomaly_deg": 273.1821,
      "mean_motion_rev_day": 13.51006976
    },
    {
      "epoch": "2026-03-29T03:29:32.322336Z",
      "apogee_km": 1070.303443435164,
      "perigee_km": 1066.8079658795968,
      "latitude_deg": 3.465646177991016e-05,
      "longitude_deg": 172.33171918805706,
      "height_km": 1071.4133648174868,
      "semi_major_axis_km": 7446.69270465738,
      "eccentricity": 0.0002347,
      "inclination_deg": 88.9971,
      "raan_deg": 51.2722,
      "arg_perigee_deg": 86.994,
      "mean_anomaly_deg": 273.148,
      "mean_motion_rev_day": 13.51007043
    },
    {
      "epoch": "2026-03-30T04:22:38.780256Z",
      "apogee_km": 1070.3198724817803,
      "perigee_km": 1066.790140470709,
      "latitude_deg": -1.8187884933980644e-05,
      "longitude_deg": 157.92771505370675,
      "height_km": 1071.3997373039604,
      "semi_major_axis_km": 7446.692006476244,
      "eccentricity": 0.000237,
      "inclination_deg": 88.9973,
      "raan_deg": 51.1671,
      "arg_perigee_deg": 86.6039,
      "mean_anomaly_deg": 273.5383,
      "mean_motion_rev_day": 13.51007233
    },
    {
      "epoch": "2026-03-30T04:22:38.781120Z",
      "apogee_km": 1070.3200214156195,
      "perigee_km": 1066.7899915368698,
      "latitude_deg": -2.0503560487092146e-05,
      "longitude_deg": 157.92771140353017,
      "height_km": 1071.3997284823615,
      "semi_major_axis_km": 7446.692006476244,
      "eccentricity": 0.00023702,
      "inclination_deg": 88.9973,
      "raan_deg": 51.1671,
      "arg_perigee_deg": 86.6039,
      "mean_anomaly_deg": 273.5383,
      "mean_motion_rev_day": 13.51007233
    },
    {
      "epoch": "2026-03-30T13:15:53.941824Z",
      "apogee_km": 1070.321532001798,
      "perigee_km": 1066.788076740624,
      "latitude_deg": 5.870444179862864e-05,
      "longitude_deg": 24.212045121888846,
      "height_km": 1071.3941481392224,
      "semi_major_axis_km": 7446.69180437121,
      "eccentricity": 0.00023725,
      "inclination_deg": 88.9974,
      "raan_deg": 51.1296,
      "arg_perigee_deg": 86.433,
      "mean_anomaly_deg": 273.7093,
      "mean_motion_rev_day": 13.51007288
    },
    {
      "epoch": "2026-03-30T22:09:09.099936Z",
      "apogee_km": 1070.323711028077,
      "perigee_km": 1066.785192184103,
      "latitude_deg": 2.5998093416864458e-05,
      "longitude_deg": -109.50361227870533,
      "height_km": 1071.3873471365935,
      "semi_major_axis_km": 7446.69145160609,
      "eccentricity": 0.00023759,
      "inclination_deg": 88.9974,
      "raan_deg": 51.0921,
      "arg_perigee_deg": 86.2289,
      "mean_anomaly_deg": 273.9134,
      "mean_motion_rev_day": 13.51007384
    },
    {
      "epoch": "2026-03-31T21:15:36.503424Z",
      "apogee_km": 1070.3320636078106,
      "perigee_km": 1066.77552408467,
      "latitude_deg": 6.896007152347727e-07,
      "longitude_deg": -97.16428849377803,
      "height_km": 1071.3740068734733,
      "semi_major_axis_km": 7446.69079384624,
      "eccentricity": 0.0002388,
      "inclination_deg": 88.9976,
      "raan_deg": 50.9946,
      "arg_perigee_deg": 85.839,
      "mean_anomaly_deg": 274.3034,
      "mean_motion_rev_day": 13.51007563
    },
    {
      "epoch": "2026-04-01T20:22:03.900864Z",
      "apogee_km": 1070.341948673783,
      "perigee_km": 1066.7645586759181,
      "latitude_deg": 5.447909931821135e-05,
      "longitude_deg": -84.8249381890116,
      "height_km": 1071.3613953255656,
      "semi_major_axis_km": 7446.69025367485,
      "eccentricity": 0.0002402,
      "inclination_deg": 88.9978,
      "raan_deg": 50.8971,
      "arg_perigee_deg": 85.4766,
      "mean_anomaly_deg": 274.666,
      "mean_motion_rev_day": 13.5100771
    },
    {
      "epoch": "2026-04-02T21:15:10.308672Z",
      "apogee_km": 1070.3535237678743,
      "perigee_km": 1066.7508155475944,
      "latitude_deg": 7.910533170540859e-05,
      "longitude_deg": -99.22853144318837,
      "height_km": 1071.3449695955642,
      "semi_major_axis_km": 7446.689169657734,
      "eccentricity": 0.0002419,
      "inclination_deg": 88.998,
      "raan_deg": 50.7922,
      "arg_perigee_deg": 85.0199,
      "mean_anomaly_deg": 275.1229,
      "mean_motion_rev_day": 13.51008005
    },
    {
      "epoch": "2026-04-02T21:15:10.309536Z",
      "apogee_km": 1070.3534493009838,
      "perigee_km": 1066.7508900144858,
      "latitude_deg": 8.025341714531179e-05,
      "longitude_deg": -99.2285350330673,
      "height_km": 1071.3449760612448,
      "semi_major_axis_km": 7446.689169657734,
      "eccentricity": 0.00024189,
      "inclination_deg": 88.998,
      "raan_deg": 50.7922,
      "arg_perigee_deg": 85.0199,
      "mean_anomaly_deg": 275.1229,
      "mean_motion_rev_day": 13.51008005
    }
  ]
}